KUZGTU 1 (RS47S)        
1 57217U 23091AV  26177.91002271  .00013414  00000+0  46225-3 0  9996
2 57217  97.5068 242.4896 0011872  67.8673 292.3826 15.30075751165862
SONATE-2                
1 59112U 24043Q   26177.95845668  .00043201  00000+0  54516-3 0  9998
2 59112  97.5532 328.9589 0007313 163.6237 196.5256 15.59436847129410
MESAT1                  
1 60209U 24125G   26177.57752686  .00056610  00000+0  59200-3 0  9996
2 60209  97.2279  35.2796 0010498 171.0383 189.1066 15.64220272111030
OOV-CUBE (TUBSAT-30)    
1 60240U 24128F   26177.30430608  .00001677  00000+0  13798-3 0  9997
2 60240  61.9924 193.7808 0043497 135.8027 224.6553 15.02804000107481
COLIBRI-S (RS67S)       
1 61746U 24199M   26177.88802830  .00024214  00000+0  46216-3 0  9993
2 61746  97.2985  51.8326 0006659 231.5465 128.5189 15.48112289138910
HORS 3 (RS81S)          
1 61753U 24199U   26177.93348640  .00040567  00000+0  59037-3 0  9995
2 61753  97.2971  53.9722 0004482 222.8506 137.2400 15.55635009139076
HORS 4 (RS82S)          
1 61754U 24199V   26177.92814542  .00053823  00000+0  64962-3 0  9996
2 61754  97.2914  55.2328 0004422 207.0706 153.0322 15.60583101139162
SIT-2086                
1 61764U 24199AF  26177.92357042  .00038974  00000+0  60760-3 0  9996
2 61764  97.2930  54.4048 0005788 206.2694 153.8267 15.53744331135948
HYPERVIEW 1G (RS66S)    
1 61772U 24199AP  26177.77067532  .00148755  00000+0  84483-3 0  9997
2 61772  97.2856  57.9913 0005986 186.8100 173.3087 15.78571118136180
ALTAIR (RS65S)          
1 61779U 24199AW  26177.94209874  .00011865  00000+0  32720-3 0  9998
2 61779  97.3024  47.2295 0010757 270.2284  89.7728 15.37200898138614
ASRTU-1 (AO-123)        
1 61781U 24199AY  26177.93863688  .00007863  00000+0  22750-3 0  9994
2 61781  97.2996  46.5221 0011885 273.8635  86.1250 15.35809102135425
SAMSAT-IONOSPHERE (RS7*)
1 61784U 24199BB  26177.88616007  .00053796  00000+0  70294-3 0  9994
2 61784  97.2938  54.0069 0006663 228.0824 131.9865 15.58467673139072
RTU MIREA 1 (RS51S)     
1 61785U 24199BC  26177.95255274  .00067933  00000+0  77015-3 0  9994
2 61785  97.2925  54.9581 0006648 219.4845 140.5929 15.62145943135999
TEVEL2-4                
1 63213U 25052D   26177.96202527  .00020017  00000+0  59190-3 0  9991
2 63213  97.3900  74.3712 0004846  85.0519 275.1278 15.34944005 71611
TEVEL2-5                
1 63214U 25052E   26177.98363902  .00020234  00000+0  60165-3 0  9994
2 63214  97.3899  74.3378 0004811  86.3990 273.7804 15.34767731 71614
TEVEL2-6                
1 63215U 25052F   26177.67019082  .00018893  00000+0  56291-3 0  9991
2 63215  97.3903  74.0082 0004687  88.0082 272.1698 15.34718267 71560
TEVEL2-1                
1 63217U 25052H   26177.96344092  .00018827  00000+0  57047-3 0  9994
2 63217  97.3871  73.9149 0005007  94.9701 265.2114 15.34183814 71592
TEVEL2-3                
1 63218U 25052J   26177.69683876  .00017292  00000+0  52351-3 0  9999
2 63218  97.3879  73.6710 0004870  95.9562 264.2236 15.34230406 71555
TEVEL2-2                
1 63219U 25052K   26177.96369552  .00019067  00000+0  57751-3 0  9993
2 63219  97.3872  73.9178 0005006  95.2154 264.9660 15.34194332 71591
TEVEL2-9                
1 63237U 25052AD  26177.95382056  .00017392  00000+0  56093-3 0  9993
2 63237  97.3934  73.2621 0008289 104.6978 255.5183 15.32187798 71526
TEVEL2-7                
1 63238U 25052AE  26177.67001963  .00015960  00000+0  52010-3 0  9992
2 63238  97.3940  72.8907 0008374 105.7247 254.4918 15.31873185 71471
TEVEL2-8                
1 63239U 25052AF  26177.22110573  .00017980  00000+0  58597-3 0  9992
2 63239  97.3937  72.4192 0008385 107.6731 252.5427 15.31844407 71403
INNOSAT 16 (RS92S7)     
1 64878U 25155C   26177.90679742  .00006277  00000+0  24982-3 0  9997
2 64878  97.4562 145.0039 0011637 143.4730 216.7304 15.25555055 82157
GEOSCAN 6 (RS92S6)      
1 64879U 25155D   26177.92494431  .00011327  00000+0  38809-3 0  9995
2 64879  97.4553 146.5153 0009399 133.0729 227.1300 15.30326959 82254
GEOSCAN 1 (RS92S1)      
1 64880U 25155E   26177.92355679  .00012909  00000+0  43355-3 0  9996
2 64880  97.4550 146.6703 0009356 133.0714 227.1311 15.30942537 82261
239ALFEROV (RS61S)      
1 64881U 25155F   26177.94438225  .00015396  00000+0  48153-3 0  9992
2 64881  97.4550 147.2859 0009062 131.0718 229.1308 15.33193258 82301
GEOSCAN 2 (RS92S2)      
1 64890U 25155Q   26177.91552227  .00011232  00000+0  37460-3 0  9992
2 64890  97.4549 146.8185 0008982 121.6465 238.5653 15.31207324 82271
GEOSCAN 5 (RS92S5)      
1 64891U 25155R   26177.93139243  .00016006  00000+0  49568-3 0  9990
2 64891  97.4542 147.4141 0007922 134.5818 225.6072 15.33509911 82318
GEOSCAN 4 (RS92S4)      
1 64892U 25155S   26177.91459481  .00015957  00000+0  49171-3 0  9992
2 64892  97.4546 147.4482 0007959 134.0683 226.1216 15.33667862 82312
GEOSCAN 3 (RS92S3)      
1 64893U 25155T   26177.90262864  .00019276  00000+0  55611-3 0  9993
2 64893  97.4534 147.8943 0007922 133.2713 226.9193 15.35709754 82345
