OBJECT_NAME,OBJECT_ID,EPOCH,MEAN_MOTION,ECCENTRICITY,INCLINATION,RA_OF_ASC_NODE,ARG_OF_PERICENTER,MEAN_ANOMALY,EPHEMERIS_TYPE,CLASSIFICATION_TYPE,NORAD_CAT_ID,ELEMENT_SET_NO,REV_AT_EPOCH,BSTAR,MEAN_MOTION_DOT,MEAN_MOTION_DDOT
KUZGTU 1 (RS47S),2023-091AV,2026-06-26T21:50:25.962144,15.30075751,.0011872,97.5068,242.4896,67.8673,292.3826,0,U,57217,999,16586,.4622457E-3,.13414E-3,0
SONATE-2,2024-043Q,2026-06-26T23:00:10.657152,15.59436847,.0007313,97.5532,328.9589,163.6237,196.5256,0,U,59112,999,12941,.54515874E-3,.43201E-3,0
MESAT1,2024-125G,2026-06-26T13:51:38.320704,15.64220272,.00104983,97.2279,35.2796,171.0383,189.1066,0,U,60209,999,11103,.5920034E-3,.5661E-3,0
OOV-CUBE (TUBSAT-30),2024-128F,2026-06-26T07:18:12.045312,15.02804000,.00434971,61.9924,193.7808,135.8027,224.6553,0,U,60240,999,10748,.13798353E-3,.1677E-4,0
COLIBRI-S (RS67S),2024-199M,2026-06-26T21:18:45.645120,15.48112289,.0006659,97.2985,51.8326,231.5465,128.5189,0,U,61746,999,13891,.46215619E-3,.24214E-3,0
HORS 3 (RS81S),2024-199U,2026-06-26T22:24:13.224960,15.55635009,.00044827,97.2971,53.9722,222.8506,137.2400,0,U,61753,999,13907,.59036971E-3,.40567E-3,0
HORS 4 (RS82S),2024-199V,2026-06-26T22:16:31.764288,15.60583101,.00044227,97.2914,55.2328,207.0706,153.0322,0,U,61754,999,13916,.64961866E-3,.53823E-3,0
SIT-2086,2024-199AF,2026-06-26T22:09:56.484288,15.53744331,.00057885,97.2930,54.4048,206.2694,153.8267,0,U,61764,999,13594,.60759912E-3,.38974E-3,0
HYPERVIEW 1G (RS66S),2024-199AP,2026-06-26T18:29:46.347648,15.78571118,.00059865,97.2856,57.9913,186.8100,173.3087,0,U,61772,999,13618,.84483271E-3,.148755E-2,0
ALTAIR (RS65S),2024-199AW,2026-06-26T22:36:37.331136,15.37200898,.00107579,97.3024,47.2295,270.2284,89.7728,0,U,61779,999,13861,.32720329E-3,.11865E-3,0
ASRTU-1 (AO-123),2024-199AY,2026-06-26T22:31:38.226432,15.35809102,.00118857,97.2996,46.5221,273.8635,86.1250,0,U,61781,999,13542,.22749657E-3,.7863E-4,0
SAMSAT-IONOSPHERE (RS75S),2024-199BB,2026-06-26T21:16:04.230048,15.58467673,.00066637,97.2938,54.0069,228.0824,131.9865,0,U,61784,999,13907,.70293611E-3,.53796E-3,0
RTU MIREA 1 (RS51S),2024-199BC,2026-06-26T22:51:40.556736,15.62145943,.0006648,97.2925,54.9581,219.4845,140.5929,0,U,61785,999,13599,.77014544E-3,.67933E-3,0
TEVEL2-4,2025-052D,2026-06-26T23:05:18.983328,15.34944005,.00048465,97.3900,74.3712,85.0519,275.1278,0,U,63213,999,7161,.59189838E-3,.20017E-3,0
TEVEL2-5,2025-052E,2026-06-26T23:36:26.411328,15.34767731,.00048116,97.3899,74.3378,86.3990,273.7804,0,U,63214,999,7161,.60164828E-3,.20234E-3,0
TEVEL2-6,2025-052F,2026-06-26T16:05:04.486848,15.34718267,.00046874,97.3903,74.0082,88.0082,272.1698,0,U,63215,999,7156,.56291297E-3,.18893E-3,0
TEVEL2-1,2025-052H,2026-06-26T23:07:21.295488,15.34183814,.00050076,97.3871,73.9149,94.9701,265.2114,0,U,63217,999,7159,.57046714E-3,.18827E-3,0
TEVEL2-3,2025-052J,2026-06-26T16:43:26.868864,15.34230406,.000487,97.3879,73.6710,95.9562,264.2236,0,U,63218,999,7155,.52350506E-3,.17292E-3,0
TEVEL2-2,2025-052K,2026-06-26T23:07:43.292928,15.34194332,.00050068,97.3872,73.9178,95.2154,264.9660,0,U,63219,999,7159,.57751331E-3,.19067E-3,0
TEVEL2-9,2025-052AD,2026-06-26T22:53:30.096384,15.32187798,.00082896,97.3934,73.2621,104.6978,255.5183,0,U,63237,999,7152,.5609258E-3,.17392E-3,0
TEVEL2-7,2025-052AE,2026-06-26T16:04:49.696032,15.31873185,.00083745,97.3940,72.8907,105.7247,254.4918,0,U,63238,999,7147,.52009802E-3,.1596E-3,0
TEVEL2-8,2025-052AF,2026-06-26T05:18:23.535072,15.31844407,.0008385,97.3937,72.4192,107.6731,252.5427,0,U,63239,999,7140,.58597E-3,.1798E-3,0
INNOSAT 16 (RS92S7),2025-155C,2026-06-26T21:45:47.297088,15.25555055,.00116373,97.4562,145.0039,143.4730,216.7304,0,U,64878,999,8215,.24982204E-3,.6277E-4,0
GEOSCAN 6 (RS92S6),2025-155D,2026-06-26T22:11:55.188384,15.30326959,.00093995,97.4553,146.5153,133.0729,227.1300,0,U,64879,999,8225,.38808906E-3,.11327E-3,0
GEOSCAN 1 (RS92S1),2025-155E,2026-06-26T22:09:55.306656,15.30942537,.00093564,97.4550,146.6703,133.0714,227.1311,0,U,64880,999,8226,.43355081E-3,.12909E-3,0
239ALFEROV (RS61S),2025-155F,2026-06-26T22:39:54.626400,15.33193258,.00090625,97.4550,147.2859,131.0718,229.1308,0,U,64881,999,8230,.48152707E-3,.15396E-3,0
GEOSCAN 2 (RS92S2),2025-155Q,2026-06-26T21:58:21.124128,15.31207324,.00089825,97.4549,146.8185,121.6465,238.5653,0,U,64890,999,8227,.37459637E-3,.11232E-3,0
GEOSCAN 5 (RS92S5),2025-155R,2026-06-26T22:21:12.305952,15.33509911,.00079226,97.4542,147.4141,134.5818,225.6072,0,U,64891,999,8231,.49568259E-3,.16006E-3,0
GEOSCAN 4 (RS92S4),2025-155S,2026-06-26T21:57:00.991584,15.33667862,.00079594,97.4546,147.4482,134.0683,226.1216,0,U,64892,999,8231,.49170989E-3,.15957E-3,0
GEOSCAN 3 (RS92S3),2025-155T,2026-06-26T21:39:47.114496,15.35709754,.00079223,97.4534,147.8943,133.2713,226.9193,0,U,64893,999,8234,.55610619E-3,.19276E-3,0
